{"type": "FeatureCollection", "features": [ {"type": "Feature", "properties": {"norad_id": 64902, "name": "CO3D 2", "group": "resource", "lat": 71.12494086005678, "lon": -85.174839274033, "alt_km": 498.02518298268933, "timestamp": "2025-12-22T05:49:03.140390+00:00", "meta": {"OBJECT_NAME": "CO3D 2", "OBJECT_ID": "2025-156D", "EPOCH": "2025-12-21T16:42:32.405760", "MEAN_MOTION": 15.20195819, "ECCENTRICITY": 7.56e-05, "INCLINATION": 97.434, "RA_OF_ASC_NODE": 71.8347, "ARG_OF_PERICENTER": 63.7971, "MEAN_ANOMALY": 296.3342, "EPHEMERIS_TYPE": 0, "CLASSIFICATION_TYPE": "U", "NORAD_CAT_ID": 64902, "ELEMENT_SET_NO": 999, "REV_AT_EPOCH": 2256, "BSTAR": 0.00013571, "MEAN_MOTION_DOT": 2.871e-05, "MEAN_MOTION_DDOT": 0}, "tle": {"line1": "1 64902U 25156D   25355.69620840  .00002871  00000+0  13571-3 0  9992", "line2": "2 64902  97.4340  71.8347 0000756  63.7971 296.3342 15.20195819 22566"}}, "geometry": {"type": "Point", "coordinates": [-85.174839274033, 71.12494086005678]}}, {"type": "Feature", "properties": {"norad_id": 64903, "name": "CO3D 1", "group": "resource", "lat": 71.88989436943577, "lon": -84.09614085445678, "alt_km": 497.7359322506127, "timestamp": "2025-12-22T05:49:03.140401+00:00", "meta": {"OBJECT_NAME": "CO3D 1", "OBJECT_ID": "2025-156E", "EPOCH": "2025-12-21T19:52:20.228160", "MEAN_MOTION": 15.20211762, "ECCENTRICITY": 8.88e-05, "INCLINATION": 97.4341, "RA_OF_ASC_NODE": 71.964, "ARG_OF_PERICENTER": 81.0883, "MEAN_ANOMALY": 279.0453, "EPHEMERIS_TYPE": 0, "CLASSIFICATION_TYPE": "U", "NORAD_CAT_ID": 64903, "ELEMENT_SET_NO": 999, "REV_AT_EPOCH": 2258, "BSTAR": 0.00024357, "MEAN_MOTION_DOT": 5.21e-05, "MEAN_MOTION_DDOT": 0}, "tle": {"line1": "1 64903U 25156E   25355.82801190  .00005210  00000+0  24357-3 0  9991", "line2": "2 64903  97.4341  71.9640 0000888  81.0883 279.0453 15.20211762 22585"}}, "geometry": {"type": "Point", "coordinates": [-84.09614085445678, 71.88989436943577]}}, {"type": "Feature", "properties": {"norad_id": 66514, "name": "SENTINEL-6B", "group": "resource", "lat": 8.527345391650876, "lon": 146.50670926801143, "alt_km": 1337.703415860995, "timestamp": "2025-12-22T05:49:03.140412+00:00", "meta": {"OBJECT_NAME": "SENTINEL-6B", "OBJECT_ID": "2025-264A", "EPOCH": "2025-12-12T06:01:21.427680", "MEAN_MOTION": 12.81479575, "ECCENTRICITY": 0.0007848, "INCLINATION": 66.0385, "RA_OF_ASC_NODE": 163.4531, "ARG_OF_PERICENTER": 270.1375, "MEAN_ANOMALY": 89.8741, "EPHEMERIS_TYPE": 0, "CLASSIFICATION_TYPE": "U", "NORAD_CAT_ID": 66514, "ELEMENT_SET_NO": 999, "REV_AT_EPOCH": 322, "BSTAR": 0.00018195, "MEAN_MOTION_DOT": -1.9e-07, "MEAN_MOTION_DDOT": 0}, "tle": {"line1": "1 66514U 25264A   25346.25094245 -.00000019  00000+0  18195-3 0  9999", "line2": "2 66514  66.0385 163.4531 0007848 270.1375  89.8741 12.81479575  3220"}}, "geometry": {"type": "Point", "coordinates": [146.50670926801143, 8.527345391650876]}}]}